<?xml version="1.0" encoding="UTF-8"?><gpx creator="Wikiloc - http://www.wikiloc.com" version="1.1" xmlns="http://www.topografix.com/GPX/1/1" xmlns:xsi="http://www.w3.org/2001/XMLSchema-instance" xsi:schemaLocation="http://www.topografix.com/GPX/1/1 http://www.topografix.com/GPX/1/1/gpx.xsd"><wpt lat="-23.75656" lon="-46.55752"><ele>830.204</ele><name><![CDATA[Ponto de interesse]]></name><cmt><![CDATA[Ponto de interesse]]></cmt></wpt><wpt lat="-23.759774" lon="-46.556211"><ele>809.512</ele><name><![CDATA[Ponto de interesse]]></name><cmt><![CDATA[Ponto de interesse]]></cmt></wpt><wpt lat="-23.763657" lon="-46.553549"><ele>761.486</ele><name><![CDATA[Ponto de interesse]]></name><cmt><![CDATA[Ponto de interesse]]></cmt></wpt><wpt lat="-23.765893" lon="-46.556885"><ele>781.902</ele><name><![CDATA[Ponto de interesse]]></name><cmt><![CDATA[Ponto de interesse]]></cmt></wpt><wpt lat="-23.763014" lon="-46.555664"><ele>805.321</ele><name><![CDATA[Ponto de interesse]]></name><cmt><![CDATA[Ponto de interesse]]></cmt></wpt><wpt lat="-23.761437" lon="-46.557684"><ele>774.851</ele><name><![CDATA[Ponto de interesse]]></name><cmt><![CDATA[Ponto de interesse]]></cmt></wpt><wpt lat="-23.764078" lon="-46.557789"><ele>776.614</ele><name><![CDATA[Ponto de interesse]]></name><cmt><![CDATA[Ponto de interesse]]></cmt></wpt><wpt lat="-23.759446" lon="-46.554139"><ele>787.1</ele><name><![CDATA[Ponto de interesse]]></name><cmt><![CDATA[Ponto de interesse]]></cmt></wpt><wpt lat="-23.757807" lon="-46.555672"><ele>810.644</ele><name><![CDATA[Ponto de interesse]]></name><cmt><![CDATA[Ponto de interesse]]></cmt></wpt><wpt lat="-23.7566" lon="-46.555676"><ele>805.11</ele><name><![CDATA[Ponto de interesse]]></name><cmt><![CDATA[Ponto de interesse]]></cmt></wpt><wpt lat="-23.755978" lon="-46.555874"><ele>815.45</ele><name><![CDATA[Ponto de interesse]]></name><cmt><![CDATA[Ponto de interesse]]></cmt></wpt><wpt lat="-23.756191" lon="-46.556833"><ele>839.369</ele><name><![CDATA[Ponto de interesse]]></name><cmt><![CDATA[Ponto de interesse]]></cmt></wpt><wpt lat="-23.756408" lon="-46.55716"><ele>835.27</ele><name><![CDATA[Ponto de interesse]]></name><cmt><![CDATA[Ponto de interesse]]></cmt></wpt><wpt lat="-23.756047" lon="-46.557304"><ele>837.814</ele><name><![CDATA[Ponto de interesse]]></name><cmt><![CDATA[Ponto de interesse]]></cmt></wpt><wpt lat="-23.755709" lon="-46.557196"><ele>840.377</ele><name><![CDATA[Ponto de interesse]]></name><cmt><![CDATA[Ponto de interesse]]></cmt></wpt><wpt lat="-23.754939" lon="-46.556959"><ele>839.341</ele><name><![CDATA[Ponto de interesse]]></name><cmt><![CDATA[Ponto de interesse]]></cmt></wpt><trk><name><![CDATA[Botujuru curto novo]]></name><cmt><![CDATA[Batistini - Sítio Anchieta]]></cmt><desc><![CDATA[Batistini - Sítio Anchieta]]></desc><trkseg><trkpt lat="-23.754512" lon="-46.557034"><ele>841.527</ele></trkpt><trkpt lat="-23.754814" lon="-46.556963"><ele>839.968</ele></trkpt><trkpt lat="-23.755457" lon="-46.5571"><ele>840.314</ele></trkpt><trkpt lat="-23.756219" lon="-46.557562"><ele>832.009</ele></trkpt><trkpt lat="-23.75656" lon="-46.55752"><ele>830.234</ele></trkpt><trkpt lat="-23.756561" lon="-46.557529"><ele>829.869</ele></trkpt><trkpt lat="-23.757418" lon="-46.557152"><ele>825.489</ele></trkpt><trkpt lat="-23.757704" lon="-46.556883"><ele>830.950</ele></trkpt><trkpt lat="-23.759224" lon="-46.556486"><ele>815.636</ele></trkpt><trkpt lat="-23.759774" lon="-46.556211"><ele>809.587</ele></trkpt><trkpt lat="-23.760008" lon="-46.556094"><ele>808.320</ele></trkpt><trkpt lat="-23.760532" lon="-46.555627"><ele>813.267</ele></trkpt><trkpt lat="-23.761231" lon="-46.555515"><ele>812.392</ele></trkpt><trkpt lat="-23.761962" lon="-46.554533"><ele>786.961</ele></trkpt><trkpt lat="-23.761834" lon="-46.554178"><ele>777.721</ele></trkpt><trkpt lat="-23.761477" lon="-46.553841"><ele>777.413</ele></trkpt><trkpt lat="-23.761523" lon="-46.553639"><ele>772.509</ele></trkpt><trkpt lat="-23.761803" lon="-46.553603"><ele>768.168</ele></trkpt><trkpt lat="-23.76258" lon="-46.55399"><ele>768.323</ele></trkpt><trkpt lat="-23.76325" lon="-46.554141"><ele>775.853</ele></trkpt><trkpt lat="-23.763551" lon="-46.553977"><ele>771.634</ele></trkpt><trkpt lat="-23.763657" lon="-46.553549"><ele>761.530</ele></trkpt><trkpt lat="-23.763573" lon="-46.553537"><ele>761.461</ele></trkpt><trkpt lat="-23.763593" lon="-46.553364"><ele>757.444</ele></trkpt><trkpt lat="-23.764109" lon="-46.553365"><ele>756.741</ele></trkpt><trkpt lat="-23.765169" lon="-46.553457"><ele>758.436</ele></trkpt><trkpt lat="-23.765706" lon="-46.553449"><ele>755.657</ele></trkpt><trkpt lat="-23.766148" lon="-46.553504"><ele>754.700</ele></trkpt><trkpt lat="-23.766324" lon="-46.553546"><ele>754.620</ele></trkpt><trkpt lat="-23.7665" lon="-46.553624"><ele>754.909</ele></trkpt><trkpt lat="-23.766595" lon="-46.553688"><ele>755.277</ele></trkpt><trkpt lat="-23.766653" lon="-46.553749"><ele>755.662</ele></trkpt><trkpt lat="-23.76673" lon="-46.55392"><ele>757.942</ele></trkpt><trkpt lat="-23.766854" lon="-46.554312"><ele>762.963</ele></trkpt><trkpt lat="-23.766696" lon="-46.554868"><ele>764.679</ele></trkpt><trkpt lat="-23.766604" lon="-46.555315"><ele>765.810</ele></trkpt><trkpt lat="-23.766548" lon="-46.555843"><ele>766.873</ele></trkpt><trkpt lat="-23.766503" lon="-46.556604"><ele>774.980</ele></trkpt><trkpt lat="-23.766458" lon="-46.556831"><ele>778.395</ele></trkpt><trkpt lat="-23.766427" lon="-46.556885"><ele>779.316</ele></trkpt><trkpt lat="-23.766199" lon="-46.557024"><ele>782.876</ele></trkpt><trkpt lat="-23.766119" lon="-46.557093"><ele>784.513</ele></trkpt><trkpt lat="-23.766091" lon="-46.557138"><ele>785.409</ele></trkpt><trkpt lat="-23.766087" lon="-46.557209"><ele>786.793</ele></trkpt><trkpt lat="-23.765893" lon="-46.556885"><ele>781.938</ele></trkpt><trkpt lat="-23.76583" lon="-46.556908"><ele>782.738</ele></trkpt><trkpt lat="-23.765827" lon="-46.556899"><ele>782.699</ele></trkpt><trkpt lat="-23.765822" lon="-46.556885"><ele>782.415</ele></trkpt><trkpt lat="-23.765815" lon="-46.556873"><ele>782.386</ele></trkpt><trkpt lat="-23.765809" lon="-46.556862"><ele>782.159</ele></trkpt><trkpt lat="-23.765802" lon="-46.556849"><ele>782.016</ele></trkpt><trkpt lat="-23.765795" lon="-46.556835"><ele>781.981</ele></trkpt><trkpt lat="-23.765787" lon="-46.55682"><ele>781.888</ele></trkpt><trkpt lat="-23.765778" lon="-46.556803"><ele>781.624</ele></trkpt><trkpt lat="-23.765769" lon="-46.556788"><ele>781.526</ele></trkpt><trkpt lat="-23.76576" lon="-46.556773"><ele>781.409</ele></trkpt><trkpt lat="-23.765751" lon="-46.556759"><ele>781.360</ele></trkpt><trkpt lat="-23.765742" lon="-46.556746"><ele>781.385</ele></trkpt><trkpt lat="-23.765733" lon="-46.556734"><ele>781.335</ele></trkpt><trkpt lat="-23.765722" lon="-46.556721"><ele>781.386</ele></trkpt><trkpt lat="-23.765711" lon="-46.556708"><ele>781.362</ele></trkpt><trkpt lat="-23.765702" lon="-46.556695"><ele>781.333</ele></trkpt><trkpt lat="-23.765694" lon="-46.556683"><ele>781.346</ele></trkpt><trkpt lat="-23.765687" lon="-46.556669"><ele>781.273</ele></trkpt><trkpt lat="-23.765681" lon="-46.556653"><ele>781.288</ele></trkpt><trkpt lat="-23.765672" lon="-46.556638"><ele>781.353</ele></trkpt><trkpt lat="-23.765662" lon="-46.556623"><ele>781.504</ele></trkpt><trkpt lat="-23.765652" lon="-46.556605"><ele>781.614</ele></trkpt><trkpt lat="-23.765643" lon="-46.556588"><ele>781.809</ele></trkpt><trkpt lat="-23.765634" lon="-46.556572"><ele>781.997</ele></trkpt><trkpt lat="-23.765624" lon="-46.556556"><ele>782.132</ele></trkpt><trkpt lat="-23.765614" lon="-46.556542"><ele>782.292</ele></trkpt><trkpt lat="-23.765604" lon="-46.55653"><ele>782.453</ele></trkpt><trkpt lat="-23.765591" lon="-46.556518"><ele>782.749</ele></trkpt><trkpt lat="-23.765576" lon="-46.556505"><ele>783.010</ele></trkpt><trkpt lat="-23.765561" lon="-46.556494"><ele>783.473</ele></trkpt><trkpt lat="-23.765549" lon="-46.556481"><ele>783.680</ele></trkpt><trkpt lat="-23.765536" lon="-46.556467"><ele>783.975</ele></trkpt><trkpt lat="-23.765525" lon="-46.556452"><ele>784.213</ele></trkpt><trkpt lat="-23.765513" lon="-46.556437"><ele>784.543</ele></trkpt><trkpt lat="-23.765488" lon="-46.556416"><ele>785.107</ele></trkpt><trkpt lat="-23.765476" lon="-46.556409"><ele>785.409</ele></trkpt><trkpt lat="-23.765464" lon="-46.556401"><ele>785.753</ele></trkpt><trkpt lat="-23.765451" lon="-46.556394"><ele>786.158</ele></trkpt><trkpt lat="-23.765439" lon="-46.556386"><ele>786.468</ele></trkpt><trkpt lat="-23.765427" lon="-46.556379"><ele>786.779</ele></trkpt><trkpt lat="-23.765415" lon="-46.556371"><ele>787.045</ele></trkpt><trkpt lat="-23.765403" lon="-46.556364"><ele>787.416</ele></trkpt><trkpt lat="-23.76539" lon="-46.556356"><ele>787.739</ele></trkpt><trkpt lat="-23.765378" lon="-46.556348"><ele>788.126</ele></trkpt><trkpt lat="-23.765366" lon="-46.556341"><ele>788.431</ele></trkpt><trkpt lat="-23.765354" lon="-46.556333"><ele>788.857</ele></trkpt><trkpt lat="-23.765341" lon="-46.556326"><ele>789.200</ele></trkpt><trkpt lat="-23.765329" lon="-46.556318"><ele>789.520</ele></trkpt><trkpt lat="-23.765317" lon="-46.556311"><ele>789.909</ele></trkpt><trkpt lat="-23.765293" lon="-46.556296"><ele>790.637</ele></trkpt><trkpt lat="-23.76528" lon="-46.556292"><ele>791.062</ele></trkpt><trkpt lat="-23.765266" lon="-46.55629"><ele>791.472</ele></trkpt><trkpt lat="-23.765251" lon="-46.556287"><ele>791.853</ele></trkpt><trkpt lat="-23.765235" lon="-46.556285"><ele>792.389</ele></trkpt><trkpt lat="-23.765218" lon="-46.556281"><ele>792.820</ele></trkpt><trkpt lat="-23.765201" lon="-46.556279"><ele>793.373</ele></trkpt><trkpt lat="-23.765184" lon="-46.556277"><ele>793.910</ele></trkpt><trkpt lat="-23.765166" lon="-46.556276"><ele>794.495</ele></trkpt><trkpt lat="-23.765147" lon="-46.556276"><ele>794.993</ele></trkpt><trkpt lat="-23.765125" lon="-46.556272"><ele>795.665</ele></trkpt><trkpt lat="-23.765102" lon="-46.55627"><ele>796.321</ele></trkpt><trkpt lat="-23.76508" lon="-46.556266"><ele>797.009</ele></trkpt><trkpt lat="-23.765058" lon="-46.556262"><ele>797.791</ele></trkpt><trkpt lat="-23.765035" lon="-46.556254"><ele>798.496</ele></trkpt><trkpt lat="-23.765013" lon="-46.556245"><ele>799.276</ele></trkpt><trkpt lat="-23.764991" lon="-46.556231"><ele>799.877</ele></trkpt><trkpt lat="-23.764968" lon="-46.556217"><ele>800.273</ele></trkpt><trkpt lat="-23.764944" lon="-46.556203"><ele>800.694</ele></trkpt><trkpt lat="-23.76492" lon="-46.556189"><ele>801.077</ele></trkpt><trkpt lat="-23.764897" lon="-46.556175"><ele>801.474</ele></trkpt><trkpt lat="-23.764875" lon="-46.556161"><ele>801.849</ele></trkpt><trkpt lat="-23.764853" lon="-46.556147"><ele>802.225</ele></trkpt><trkpt lat="-23.764832" lon="-46.556133"><ele>802.626</ele></trkpt><trkpt lat="-23.764812" lon="-46.55612"><ele>803.008</ele></trkpt><trkpt lat="-23.764793" lon="-46.556107"><ele>803.409</ele></trkpt><trkpt lat="-23.764773" lon="-46.556094"><ele>803.714</ele></trkpt><trkpt lat="-23.764752" lon="-46.556083"><ele>804.149</ele></trkpt><trkpt lat="-23.764732" lon="-46.556072"><ele>804.559</ele></trkpt><trkpt lat="-23.764713" lon="-46.55606"><ele>804.930</ele></trkpt><trkpt lat="-23.764693" lon="-46.556047"><ele>805.236</ele></trkpt><trkpt lat="-23.764672" lon="-46.556035"><ele>805.627</ele></trkpt><trkpt lat="-23.76465" lon="-46.556024"><ele>806.130</ele></trkpt><trkpt lat="-23.764628" lon="-46.556013"><ele>806.597</ele></trkpt><trkpt lat="-23.764606" lon="-46.556001"><ele>806.962</ele></trkpt><trkpt lat="-23.764583" lon="-46.55599"><ele>807.327</ele></trkpt><trkpt lat="-23.764559" lon="-46.555979"><ele>807.868</ele></trkpt><trkpt lat="-23.764534" lon="-46.555968"><ele>808.214</ele></trkpt><trkpt lat="-23.764511" lon="-46.555956"><ele>808.709</ele></trkpt><trkpt lat="-23.764489" lon="-46.555942"><ele>809.134</ele></trkpt><trkpt lat="-23.764467" lon="-46.55593"><ele>809.659</ele></trkpt><trkpt lat="-23.764443" lon="-46.555918"><ele>810.039</ele></trkpt><trkpt lat="-23.76442" lon="-46.555907"><ele>810.530</ele></trkpt><trkpt lat="-23.764395" lon="-46.555896"><ele>811.056</ele></trkpt><trkpt lat="-23.76437" lon="-46.555887"><ele>811.487</ele></trkpt><trkpt lat="-23.764343" lon="-46.555877"><ele>811.990</ele></trkpt><trkpt lat="-23.764317" lon="-46.555865"><ele>812.427</ele></trkpt><trkpt lat="-23.764291" lon="-46.555851"><ele>813.032</ele></trkpt><trkpt lat="-23.764266" lon="-46.555839"><ele>813.529</ele></trkpt><trkpt lat="-23.764241" lon="-46.555828"><ele>813.900</ele></trkpt><trkpt lat="-23.764216" lon="-46.555817"><ele>814.120</ele></trkpt><trkpt lat="-23.764194" lon="-46.555812"><ele>814.309</ele></trkpt><trkpt lat="-23.764171" lon="-46.555807"><ele>814.654</ele></trkpt><trkpt lat="-23.764146" lon="-46.555801"><ele>814.319</ele></trkpt><trkpt lat="-23.764122" lon="-46.555792"><ele>814.099</ele></trkpt><trkpt lat="-23.764097" lon="-46.555783"><ele>813.690</ele></trkpt><trkpt lat="-23.764071" lon="-46.555772"><ele>813.236</ele></trkpt><trkpt lat="-23.764044" lon="-46.555762"><ele>812.867</ele></trkpt><trkpt lat="-23.764016" lon="-46.555751"><ele>812.440</ele></trkpt><trkpt lat="-23.763988" lon="-46.555741"><ele>812.047</ele></trkpt><trkpt lat="-23.763961" lon="-46.555731"><ele>811.662</ele></trkpt><trkpt lat="-23.763933" lon="-46.555722"><ele>811.326</ele></trkpt><trkpt lat="-23.763906" lon="-46.555714"><ele>810.947</ele></trkpt><trkpt lat="-23.763879" lon="-46.555706"><ele>810.611</ele></trkpt><trkpt lat="-23.763852" lon="-46.555698"><ele>810.209</ele></trkpt><trkpt lat="-23.763826" lon="-46.55569"><ele>809.994</ele></trkpt><trkpt lat="-23.763799" lon="-46.555682"><ele>809.589</ele></trkpt><trkpt lat="-23.763773" lon="-46.555675"><ele>809.249</ele></trkpt><trkpt lat="-23.763747" lon="-46.555667"><ele>808.940</ele></trkpt><trkpt lat="-23.763722" lon="-46.55566"><ele>808.636</ele></trkpt><trkpt lat="-23.763697" lon="-46.555652"><ele>808.277</ele></trkpt><trkpt lat="-23.763674" lon="-46.555645"><ele>808.080</ele></trkpt><trkpt lat="-23.763651" lon="-46.555634"><ele>807.657</ele></trkpt><trkpt lat="-23.763627" lon="-46.555623"><ele>807.382</ele></trkpt><trkpt lat="-23.763603" lon="-46.555614"><ele>807.052</ele></trkpt><trkpt lat="-23.76358" lon="-46.555607"><ele>806.753</ele></trkpt><trkpt lat="-23.763561" lon="-46.555602"><ele>806.508</ele></trkpt><trkpt lat="-23.763547" lon="-46.555598"><ele>806.309</ele></trkpt><trkpt lat="-23.763536" lon="-46.555599"><ele>806.247</ele></trkpt><trkpt lat="-23.763527" lon="-46.555603"><ele>806.232</ele></trkpt><trkpt lat="-23.763519" lon="-46.555612"><ele>806.292</ele></trkpt><trkpt lat="-23.763514" lon="-46.555623"><ele>806.393</ele></trkpt><trkpt lat="-23.76351" lon="-46.555635"><ele>806.449</ele></trkpt><trkpt lat="-23.763505" lon="-46.555647"><ele>806.550</ele></trkpt><trkpt lat="-23.7635" lon="-46.555659"><ele>806.693</ele></trkpt><trkpt lat="-23.763494" lon="-46.555672"><ele>806.750</ele></trkpt><trkpt lat="-23.763488" lon="-46.555684"><ele>806.885</ele></trkpt><trkpt lat="-23.763482" lon="-46.555695"><ele>806.836</ele></trkpt><trkpt lat="-23.763473" lon="-46.555705"><ele>806.917</ele></trkpt><trkpt lat="-23.763465" lon="-46.555715"><ele>806.918</ele></trkpt><trkpt lat="-23.763463" lon="-46.55573"><ele>807.109</ele></trkpt><trkpt lat="-23.763458" lon="-46.555743"><ele>807.235</ele></trkpt><trkpt lat="-23.76345" lon="-46.555756"><ele>807.240</ele></trkpt><trkpt lat="-23.763439" lon="-46.555768"><ele>807.310</ele></trkpt><trkpt lat="-23.763427" lon="-46.555778"><ele>807.341</ele></trkpt><trkpt lat="-23.763412" lon="-46.555782"><ele>807.247</ele></trkpt><trkpt lat="-23.763398" lon="-46.555792"><ele>807.298</ele></trkpt><trkpt lat="-23.763383" lon="-46.5558"><ele>807.121</ele></trkpt><trkpt lat="-23.763368" lon="-46.555804"><ele>807.068</ele></trkpt><trkpt lat="-23.76335" lon="-46.555801"><ele>806.823</ele></trkpt><trkpt lat="-23.763336" lon="-46.555799"><ele>806.743</ele></trkpt><trkpt lat="-23.763323" lon="-46.555796"><ele>806.664</ele></trkpt><trkpt lat="-23.763312" lon="-46.555794"><ele>806.610</ele></trkpt><trkpt lat="-23.763301" lon="-46.55579"><ele>806.609</ele></trkpt><trkpt lat="-23.76329" lon="-46.555785"><ele>806.536</ele></trkpt><trkpt lat="-23.763279" lon="-46.55578"><ele>806.541</ele></trkpt><trkpt lat="-23.763271" lon="-46.555776"><ele>806.411</ele></trkpt><trkpt lat="-23.763265" lon="-46.55577"><ele>806.442</ele></trkpt><trkpt lat="-23.763259" lon="-46.555762"><ele>806.378</ele></trkpt><trkpt lat="-23.763253" lon="-46.555751"><ele>806.239</ele></trkpt><trkpt lat="-23.763247" lon="-46.555739"><ele>806.122</ele></trkpt><trkpt lat="-23.763238" lon="-46.555725"><ele>805.919</ele></trkpt><trkpt lat="-23.763229" lon="-46.55571"><ele>805.754</ele></trkpt><trkpt lat="-23.76322" lon="-46.555695"><ele>805.692</ele></trkpt><trkpt lat="-23.763211" lon="-46.555681"><ele>805.473</ele></trkpt><trkpt lat="-23.763202" lon="-46.555668"><ele>805.320</ele></trkpt><trkpt lat="-23.76319" lon="-46.555659"><ele>805.209</ele></trkpt><trkpt lat="-23.763177" lon="-46.555654"><ele>805.171</ele></trkpt><trkpt lat="-23.763164" lon="-46.555652"><ele>805.166</ele></trkpt><trkpt lat="-23.763152" lon="-46.555649"><ele>805.166</ele></trkpt><trkpt lat="-23.763141" lon="-46.555645"><ele>805.057</ele></trkpt><trkpt lat="-23.763131" lon="-46.555642"><ele>805.073</ele></trkpt><trkpt lat="-23.76312" lon="-46.555641"><ele>805.044</ele></trkpt><trkpt lat="-23.763109" lon="-46.555638"><ele>805.047</ele></trkpt><trkpt lat="-23.763097" lon="-46.555635"><ele>804.914</ele></trkpt><trkpt lat="-23.763086" lon="-46.555634"><ele>804.999</ele></trkpt><trkpt lat="-23.763074" lon="-46.555634"><ele>804.954</ele></trkpt><trkpt lat="-23.763063" lon="-46.555635"><ele>805.056</ele></trkpt><trkpt lat="-23.763053" lon="-46.55564"><ele>805.011</ele></trkpt><trkpt lat="-23.763041" lon="-46.555644"><ele>805.109</ele></trkpt><trkpt lat="-23.763031" lon="-46.55565"><ele>805.177</ele></trkpt><trkpt lat="-23.763021" lon="-46.555656"><ele>805.292</ele></trkpt><trkpt lat="-23.763013" lon="-46.555663"><ele>805.392</ele></trkpt><trkpt lat="-23.763014" lon="-46.555664"><ele>805.373</ele></trkpt><trkpt lat="-23.763016" lon="-46.555666"><ele>805.339</ele></trkpt><trkpt lat="-23.762643" lon="-46.556181"><ele>805.350</ele></trkpt><trkpt lat="-23.761936" lon="-46.557029"><ele>796.213</ele></trkpt><trkpt lat="-23.761739" lon="-46.557109"><ele>794.540</ele></trkpt><trkpt lat="-23.761815" lon="-46.557599"><ele>780.755</ele></trkpt><trkpt lat="-23.761681" lon="-46.557564"><ele>781.365</ele></trkpt><trkpt lat="-23.761613" lon="-46.557572"><ele>780.168</ele></trkpt><trkpt lat="-23.761493" lon="-46.55763"><ele>776.814</ele></trkpt><trkpt lat="-23.761437" lon="-46.557684"><ele>774.909</ele></trkpt><trkpt lat="-23.761396" lon="-46.557624"><ele>775.448</ele></trkpt><trkpt lat="-23.761415" lon="-46.557608"><ele>776.083</ele></trkpt><trkpt lat="-23.761438" lon="-46.55759"><ele>776.833</ele></trkpt><trkpt lat="-23.761462" lon="-46.557574"><ele>777.554</ele></trkpt><trkpt lat="-23.761485" lon="-46.557558"><ele>778.240</ele></trkpt><trkpt lat="-23.761508" lon="-46.557545"><ele>778.941</ele></trkpt><trkpt lat="-23.76153" lon="-46.557533"><ele>779.684</ele></trkpt><trkpt lat="-23.761555" lon="-46.557523"><ele>780.311</ele></trkpt><trkpt lat="-23.761579" lon="-46.557514"><ele>781.076</ele></trkpt><trkpt lat="-23.761604" lon="-46.557508"><ele>781.679</ele></trkpt><trkpt lat="-23.76163" lon="-46.557503"><ele>782.205</ele></trkpt><trkpt lat="-23.761655" lon="-46.557502"><ele>782.725</ele></trkpt><trkpt lat="-23.76168" lon="-46.557502"><ele>783.009</ele></trkpt><trkpt lat="-23.761706" lon="-46.557506"><ele>782.969</ele></trkpt><trkpt lat="-23.761732" lon="-46.55751"><ele>782.814</ele></trkpt><trkpt lat="-23.761759" lon="-46.557519"><ele>782.624</ele></trkpt><trkpt lat="-23.761786" lon="-46.557528"><ele>782.485</ele></trkpt><trkpt lat="-23.761811" lon="-46.557541"><ele>782.171</ele></trkpt><trkpt lat="-23.761837" lon="-46.557554"><ele>781.932</ele></trkpt><trkpt lat="-23.761861" lon="-46.557569"><ele>781.595</ele></trkpt><trkpt lat="-23.761886" lon="-46.557585"><ele>781.222</ele></trkpt><trkpt lat="-23.761909" lon="-46.557601"><ele>780.917</ele></trkpt><trkpt lat="-23.761932" lon="-46.557617"><ele>780.675</ele></trkpt><trkpt lat="-23.761953" lon="-46.557633"><ele>780.328</ele></trkpt><trkpt lat="-23.761974" lon="-46.557649"><ele>780.020</ele></trkpt><trkpt lat="-23.761994" lon="-46.557664"><ele>779.709</ele></trkpt><trkpt lat="-23.762015" lon="-46.557678"><ele>779.579</ele></trkpt><trkpt lat="-23.762035" lon="-46.557693"><ele>779.274</ele></trkpt><trkpt lat="-23.762055" lon="-46.557708"><ele>779.014</ele></trkpt><trkpt lat="-23.762075" lon="-46.557724"><ele>778.835</ele></trkpt><trkpt lat="-23.762095" lon="-46.557739"><ele>778.521</ele></trkpt><trkpt lat="-23.762118" lon="-46.557754"><ele>778.312</ele></trkpt><trkpt lat="-23.76214" lon="-46.557768"><ele>778.235</ele></trkpt><trkpt lat="-23.762165" lon="-46.557781"><ele>778.152</ele></trkpt><trkpt lat="-23.76219" lon="-46.557794"><ele>778.047</ele></trkpt><trkpt lat="-23.762212" lon="-46.557808"><ele>777.849</ele></trkpt><trkpt lat="-23.762235" lon="-46.557822"><ele>777.702</ele></trkpt><trkpt lat="-23.762257" lon="-46.557837"><ele>777.622</ele></trkpt><trkpt lat="-23.762279" lon="-46.557853"><ele>777.409</ele></trkpt><trkpt lat="-23.762299" lon="-46.557867"><ele>777.366</ele></trkpt><trkpt lat="-23.762319" lon="-46.557881"><ele>777.231</ele></trkpt><trkpt lat="-23.762336" lon="-46.557894"><ele>777.111</ele></trkpt><trkpt lat="-23.762353" lon="-46.557907"><ele>777.042</ele></trkpt><trkpt lat="-23.76237" lon="-46.557921"><ele>776.978</ele></trkpt><trkpt lat="-23.762387" lon="-46.557935"><ele>776.849</ele></trkpt><trkpt lat="-23.762403" lon="-46.55795"><ele>776.762</ele></trkpt><trkpt lat="-23.762419" lon="-46.557965"><ele>776.699</ele></trkpt><trkpt lat="-23.762436" lon="-46.557977"><ele>776.614</ele></trkpt><trkpt lat="-23.762452" lon="-46.557989"><ele>776.571</ele></trkpt><trkpt lat="-23.762471" lon="-46.558"><ele>776.541</ele></trkpt><trkpt lat="-23.76249" lon="-46.55801"><ele>776.615</ele></trkpt><trkpt lat="-23.76251" lon="-46.558021"><ele>776.409</ele></trkpt><trkpt lat="-23.76253" lon="-46.558032"><ele>776.189</ele></trkpt><trkpt lat="-23.762549" lon="-46.558043"><ele>775.874</ele></trkpt><trkpt lat="-23.762568" lon="-46.558054"><ele>775.544</ele></trkpt><trkpt lat="-23.762587" lon="-46.558068"><ele>775.165</ele></trkpt><trkpt lat="-23.762605" lon="-46.558082"><ele>774.861</ele></trkpt><trkpt lat="-23.762623" lon="-46.558099"><ele>774.322</ele></trkpt><trkpt lat="-23.762641" lon="-46.558117"><ele>773.975</ele></trkpt><trkpt lat="-23.76266" lon="-46.558137"><ele>773.472</ele></trkpt><trkpt lat="-23.762679" lon="-46.558157"><ele>772.987</ele></trkpt><trkpt lat="-23.7627" lon="-46.558179"><ele>772.487</ele></trkpt><trkpt lat="-23.762721" lon="-46.558201"><ele>771.842</ele></trkpt><trkpt lat="-23.762745" lon="-46.558225"><ele>771.226</ele></trkpt><trkpt lat="-23.762769" lon="-46.558249"><ele>770.509</ele></trkpt><trkpt lat="-23.762795" lon="-46.558272"><ele>769.950</ele></trkpt><trkpt lat="-23.762822" lon="-46.558296"><ele>769.285</ele></trkpt><trkpt lat="-23.762845" lon="-46.558317"><ele>768.615</ele></trkpt><trkpt lat="-23.762868" lon="-46.558337"><ele>768.046</ele></trkpt><trkpt lat="-23.76289" lon="-46.558359"><ele>767.322</ele></trkpt><trkpt lat="-23.762913" lon="-46.55838"><ele>766.793</ele></trkpt><trkpt lat="-23.76294" lon="-46.558402"><ele>766.036</ele></trkpt><trkpt lat="-23.762967" lon="-46.558425"><ele>765.353</ele></trkpt><trkpt lat="-23.762999" lon="-46.558445"><ele>764.798</ele></trkpt><trkpt lat="-23.76303" lon="-46.558464"><ele>764.081</ele></trkpt><trkpt lat="-23.763061" lon="-46.558479"><ele>763.561</ele></trkpt><trkpt lat="-23.763092" lon="-46.558494"><ele>763.017</ele></trkpt><trkpt lat="-23.763117" lon="-46.558506"><ele>762.609</ele></trkpt><trkpt lat="-23.763143" lon="-46.558518"><ele>762.250</ele></trkpt><trkpt lat="-23.763153" lon="-46.558522"><ele>762.015</ele></trkpt><trkpt lat="-23.763163" lon="-46.558526"><ele>761.955</ele></trkpt><trkpt lat="-23.763169" lon="-46.558529"><ele>761.876</ele></trkpt><trkpt lat="-23.763175" lon="-46.558532"><ele>761.732</ele></trkpt><trkpt lat="-23.763171" lon="-46.558532"><ele>761.753</ele></trkpt><trkpt lat="-23.763168" lon="-46.558533"><ele>761.716</ele></trkpt><trkpt lat="-23.763169" lon="-46.558533"><ele>761.783</ele></trkpt><trkpt lat="-23.76317" lon="-46.558534"><ele>761.748</ele></trkpt><trkpt lat="-23.763178" lon="-46.558538"><ele>761.622</ele></trkpt><trkpt lat="-23.763187" lon="-46.558543"><ele>761.462</ele></trkpt><trkpt lat="-23.763202" lon="-46.558551"><ele>761.208</ele></trkpt><trkpt lat="-23.763217" lon="-46.558559"><ele>760.909</ele></trkpt><trkpt lat="-23.763235" lon="-46.558566"><ele>760.794</ele></trkpt><trkpt lat="-23.763254" lon="-46.558573"><ele>760.499</ele></trkpt><trkpt lat="-23.763277" lon="-46.558579"><ele>760.269</ele></trkpt><trkpt lat="-23.7633" lon="-46.558584"><ele>759.920</ele></trkpt><trkpt lat="-23.763323" lon="-46.55859"><ele>759.756</ele></trkpt><trkpt lat="-23.763346" lon="-46.558597"><ele>759.647</ele></trkpt><trkpt lat="-23.763369" lon="-46.558603"><ele>759.860</ele></trkpt><trkpt lat="-23.763391" lon="-46.558609"><ele>759.997</ele></trkpt><trkpt lat="-23.763413" lon="-46.558613"><ele>760.132</ele></trkpt><trkpt lat="-23.763434" lon="-46.558617"><ele>760.287</ele></trkpt><trkpt lat="-23.763453" lon="-46.558618"><ele>760.442</ele></trkpt><trkpt lat="-23.763473" lon="-46.558619"><ele>760.626</ele></trkpt><trkpt lat="-23.763493" lon="-46.558618"><ele>760.809</ele></trkpt><trkpt lat="-23.763514" lon="-46.558617"><ele>761.090</ele></trkpt><trkpt lat="-23.763536" lon="-46.558611"><ele>761.355</ele></trkpt><trkpt lat="-23.763557" lon="-46.558604"><ele>761.515</ele></trkpt><trkpt lat="-23.763579" lon="-46.558593"><ele>761.826</ele></trkpt><trkpt lat="-23.7636" lon="-46.558582"><ele>762.192</ele></trkpt><trkpt lat="-23.763622" lon="-46.558567"><ele>762.483</ele></trkpt><trkpt lat="-23.763644" lon="-46.558553"><ele>762.636</ele></trkpt><trkpt lat="-23.763665" lon="-46.558538"><ele>762.993</ele></trkpt><trkpt lat="-23.763686" lon="-46.558523"><ele>763.158</ele></trkpt><trkpt lat="-23.763704" lon="-46.558508"><ele>763.313</ele></trkpt><trkpt lat="-23.763723" lon="-46.558494"><ele>763.443</ele></trkpt><trkpt lat="-23.763738" lon="-46.558475"><ele>763.607</ele></trkpt><trkpt lat="-23.763754" lon="-46.558457"><ele>763.709</ele></trkpt><trkpt lat="-23.763766" lon="-46.558434"><ele>763.813</ele></trkpt><trkpt lat="-23.763778" lon="-46.558412"><ele>763.938</ele></trkpt><trkpt lat="-23.763785" lon="-46.558389"><ele>764.048</ele></trkpt><trkpt lat="-23.763792" lon="-46.558365"><ele>764.129</ele></trkpt><trkpt lat="-23.763796" lon="-46.558342"><ele>764.145</ele></trkpt><trkpt lat="-23.7638" lon="-46.558318"><ele>764.526</ele></trkpt><trkpt lat="-23.7638" lon="-46.558295"><ele>765.089</ele></trkpt><trkpt lat="-23.7638" lon="-46.558273"><ele>765.566</ele></trkpt><trkpt lat="-23.763795" lon="-46.558252"><ele>765.961</ele></trkpt><trkpt lat="-23.763791" lon="-46.558231"><ele>766.469</ele></trkpt><trkpt lat="-23.763787" lon="-46.558211"><ele>766.804</ele></trkpt><trkpt lat="-23.763782" lon="-46.558191"><ele>767.224</ele></trkpt><trkpt lat="-23.763779" lon="-46.558172"><ele>767.609</ele></trkpt><trkpt lat="-23.763775" lon="-46.558153"><ele>768.168</ele></trkpt><trkpt lat="-23.763773" lon="-46.558134"><ele>768.543</ele></trkpt><trkpt lat="-23.763771" lon="-46.558115"><ele>768.973</ele></trkpt><trkpt lat="-23.763768" lon="-46.558096"><ele>769.334</ele></trkpt><trkpt lat="-23.763766" lon="-46.558077"><ele>769.790</ele></trkpt><trkpt lat="-23.763765" lon="-46.558056"><ele>770.231</ele></trkpt><trkpt lat="-23.763765" lon="-46.558036"><ele>770.624</ele></trkpt><trkpt lat="-23.763767" lon="-46.558017"><ele>771.151</ele></trkpt><trkpt lat="-23.76377" lon="-46.557997"><ele>771.536</ele></trkpt><trkpt lat="-23.763775" lon="-46.557979"><ele>771.962</ele></trkpt><trkpt lat="-23.763781" lon="-46.55796"><ele>772.383</ele></trkpt><trkpt lat="-23.76379" lon="-46.557941"><ele>772.811</ele></trkpt><trkpt lat="-23.7638" lon="-46.557922"><ele>773.209</ele></trkpt><trkpt lat="-23.763814" lon="-46.557903"><ele>773.758</ele></trkpt><trkpt lat="-23.763829" lon="-46.557884"><ele>774.183</ele></trkpt><trkpt lat="-23.763846" lon="-46.557864"><ele>774.673</ele></trkpt><trkpt lat="-23.763863" lon="-46.557845"><ele>775.034</ele></trkpt><trkpt lat="-23.763882" lon="-46.557829"><ele>775.480</ele></trkpt><trkpt lat="-23.763902" lon="-46.557813"><ele>775.871</ele></trkpt><trkpt lat="-23.763923" lon="-46.5578"><ele>776.134</ele></trkpt><trkpt lat="-23.763945" lon="-46.557788"><ele>776.491</ele></trkpt><trkpt lat="-23.763967" lon="-46.557779"><ele>776.766</ele></trkpt><trkpt lat="-23.763989" lon="-46.55777"><ele>776.976</ele></trkpt><trkpt lat="-23.764013" lon="-46.557766"><ele>777.090</ele></trkpt><trkpt lat="-23.764037" lon="-46.557762"><ele>777.119</ele></trkpt><trkpt lat="-23.764066" lon="-46.557759"><ele>777.209</ele></trkpt><trkpt lat="-23.764077" lon="-46.557758"><ele>777.389</ele></trkpt><trkpt lat="-23.764078" lon="-46.557789"><ele>776.634</ele></trkpt><trkpt lat="-23.764099" lon="-46.55757"><ele>781.454</ele></trkpt><trkpt lat="-23.764096" lon="-46.557572"><ele>781.415</ele></trkpt><trkpt lat="-23.764328" lon="-46.557521"><ele>784.631</ele></trkpt><trkpt lat="-23.764587" lon="-46.556699"><ele>799.552</ele></trkpt><trkpt lat="-23.764983" lon="-46.556348"><ele>798.985</ele></trkpt><trkpt lat="-23.764655" lon="-46.555973"><ele>806.552</ele></trkpt><trkpt lat="-23.765548" lon="-46.55638"><ele>783.447</ele></trkpt><trkpt lat="-23.766123" lon="-46.557062"><ele>783.963</ele></trkpt><trkpt lat="-23.766395" lon="-46.556754"><ele>777.444</ele></trkpt><trkpt lat="-23.766794" lon="-46.554652"><ele>764.418</ele></trkpt><trkpt lat="-23.766622" lon="-46.553769"><ele>756.009</ele></trkpt><trkpt lat="-23.765952" lon="-46.553466"><ele>754.838</ele></trkpt><trkpt lat="-23.763811" lon="-46.553389"><ele>757.663</ele></trkpt><trkpt lat="-23.763628" lon="-46.553491"><ele>760.253</ele></trkpt><trkpt lat="-23.76344" lon="-46.554031"><ele>773.384</ele></trkpt><trkpt lat="-23.7631" lon="-46.554106"><ele>774.030</ele></trkpt><trkpt lat="-23.762271" lon="-46.553867"><ele>767.991</ele></trkpt><trkpt lat="-23.762234" lon="-46.553181"><ele>758.374</ele></trkpt><trkpt lat="-23.761455" lon="-46.552974"><ele>762.191</ele></trkpt><trkpt lat="-23.759446" lon="-46.554139"><ele>787.116</ele></trkpt><trkpt lat="-23.759452" lon="-46.55416"><ele>787.731</ele></trkpt><trkpt lat="-23.759326" lon="-46.554203"><ele>785.461</ele></trkpt><trkpt lat="-23.759189" lon="-46.554707"><ele>797.307</ele></trkpt><trkpt lat="-23.758644" lon="-46.555179"><ele>803.409</ele></trkpt><trkpt lat="-23.758374" lon="-46.555496"><ele>811.725</ele></trkpt><trkpt lat="-23.757807" lon="-46.555672"><ele>810.650</ele></trkpt><trkpt lat="-23.756964" lon="-46.555935"><ele>810.850</ele></trkpt><trkpt lat="-23.7566" lon="-46.555676"><ele>805.141</ele></trkpt><trkpt lat="-23.756578" lon="-46.555739"><ele>805.777</ele></trkpt><trkpt lat="-23.756237" lon="-46.555605"><ele>809.478</ele></trkpt><trkpt lat="-23.756175" lon="-46.555317"><ele>808.621</ele></trkpt><trkpt lat="-23.756031" lon="-46.555417"><ele>811.078</ele></trkpt><trkpt lat="-23.755978" lon="-46.555874"><ele>815.573</ele></trkpt><trkpt lat="-23.755919" lon="-46.555871"><ele>816.176</ele></trkpt><trkpt lat="-23.755893" lon="-46.556385"><ele>833.390</ele></trkpt><trkpt lat="-23.756191" lon="-46.556833"><ele>839.419</ele></trkpt><trkpt lat="-23.756408" lon="-46.55716"><ele>835.309</ele></trkpt><trkpt lat="-23.756438" lon="-46.557205"><ele>834.779</ele></trkpt><trkpt lat="-23.756047" lon="-46.557304"><ele>837.874</ele></trkpt><trkpt lat="-23.755949" lon="-46.557329"><ele>838.764</ele></trkpt><trkpt lat="-23.755709" lon="-46.557196"><ele>840.435</ele></trkpt><trkpt lat="-23.755362" lon="-46.557003"><ele>840.251</ele></trkpt><trkpt lat="-23.754939" lon="-46.556959"><ele>839.362</ele></trkpt><trkpt lat="-23.754595" lon="-46.556922"><ele>840.995</ele></trkpt></trkseg></trk></gpx>